INSAT-3D                
1 39216U 13038B   26062.96873667 -.00000351  00000+0  00000+0 0  9992
2 39216   1.6544  83.9201 0001772 240.8778 315.1496  1.00273595 46022
WGS F6 (USA 244)        
1 39222U 13041A   26063.03169721  .00000076  00000+0  00000+0 0  9994
2 39222   0.0171 132.4129 0001398 189.4437  76.1219  1.00270198 45001
ES'HAIL 1               
1 39233U 13044A   26063.06919770  .00000130  00000+0  00000+0 0  9990
2 39233   0.0553 349.6991 0003077 355.4017 227.1139  1.00270895 45576
GSAT-7                  
1 39234U 13044B   26063.10036743 -.00000089  00000+0  00000+0 0  9990
2 39234   0.0207 109.2472 0006608 183.9207 338.8037  1.00271441 44209
AMOS-4                  
1 39237U 13045A   26063.09854743 -.00000005  00000+0  00000+0 0  9998
2 39237   0.0119 158.9724 0003310 189.9836 273.3653  1.00272159 45908
SL-23 R/B               
1 39238U 13045B   26062.46594885 -.00000225  00000+0  00000+0 0  9991
2 39238  26.2971 100.0767 6367888  74.2280 343.9452  2.10659709 96233
AEHF-3 (USA 246)        
1 39256U 13050A   26063.13234758  .00000019  00000+0  00000+0 0  9992
2 39256   5.0348  68.1529 0091732 187.9099 189.2028  1.00272712 44609
ASTRA 2E                
1 39285U 13056A   26063.06919770  .00000137  00000+0  00000+0 0  9997
2 39285   0.0692  29.9587 0002192 306.6148 238.6253  1.00271905 45360
TITAN 3C TRANSTAGE DEB  
1 39296U 68081AG  26063.07410729 -.00000364  00000+0  00000+0 0  9991
2 39296   1.4514  25.1689 0173674 310.6914 153.5407  1.00581761 50637
TITAN 3C TRANSTAGE DEB  
1 39297U 68081AH  26062.42067031 -.00000088  00000+0  00000+0 0  9997
2 39297   1.4914  18.1825 0230356 309.1719  49.5337  1.00426990 15418
TITAN 3C TRANSTAGE DEB  
1 39298U 68081AJ  26062.56445392 -.00000127  00000+0  00000+0 0  9997
2 39298   1.5309  19.2587 0153175 324.2433 271.7456  1.00121580 65221
TITAN 3C TRANSTAGE DEB  
1 39299U 68081AK  26062.74125488 -.00000045  00000+0  00000+0 0  9998
2 39299   1.4242  19.3646 0162158  23.5295  84.8263  1.00432653 66114
CZ-3B DEB               
1 39333U 10042E   26062.49719338  .00000064  00000+0  24577-2 0  9994
2 39333  24.3972  47.7588 7442808  84.8198  15.9566  1.91226778 88090
CZ-3B DEB               
1 39334U 10042F   26061.12823169  .00000023  00000+0  00000+0 0  9999
2 39334  26.1246 266.0053 7356113   1.8521 172.3838  1.86386020 95820
CZ-3B DEB               
1 39335U 10042G   26058.25392083  .00000707  00000+0  10318-1 0  9990
2 39335  27.7830  65.7488 7360289 275.3611  72.2182  1.97574851 81884
CZ-3B DEB               
1 39337U 10042J   26053.67562704  .00000295  00000+0  76506-2 0  9996
2 39337  24.2566 146.8813 7504896 240.5660  26.5645  1.84179093 80597
CZ-3C DEB               
1 39338U 10057C   26062.22105312  .00000257  00000+0  29394-2 0  9993
2 39338  20.2060  45.3050 7190830 271.3024  15.0754  2.25952159102007
