[{"OBJECT_NAME":"INSAT-3D","OBJECT_ID":"2013-038B","EPOCH":"2026-03-03T23:14:58.848288","MEAN_MOTION":1.00273595,"ECCENTRICITY":0.0001772,"INCLINATION":1.6544,"RA_OF_ASC_NODE":83.9201,"ARG_OF_PERICENTER":240.8778,"MEAN_ANOMALY":315.1496,"EPHEMERIS_TYPE":0,"CLASSIFICATION_TYPE":"U","NORAD_CAT_ID":39216,"ELEMENT_SET_NO":999,"REV_AT_EPOCH":4602,"BSTAR":0,"MEAN_MOTION_DOT":-3.51e-6,"MEAN_MOTION_DDOT":0},{"OBJECT_NAME":"WGS F6 (USA 244)","OBJECT_ID":"2013-041A","EPOCH":"2026-03-04T00:45:38.638944","MEAN_MOTION":1.00270198,"ECCENTRICITY":0.0001398,"INCLINATION":0.0171,"RA_OF_ASC_NODE":132.4129,"ARG_OF_PERICENTER":189.4437,"MEAN_ANOMALY":76.1219,"EPHEMERIS_TYPE":0,"CLASSIFICATION_TYPE":"U","NORAD_CAT_ID":39222,"ELEMENT_SET_NO":999,"REV_AT_EPOCH":4500,"BSTAR":0,"MEAN_MOTION_DOT":7.6e-7,"MEAN_MOTION_DDOT":0},{"OBJECT_NAME":"ES'HAIL 1","OBJECT_ID":"2013-044A","EPOCH":"2026-03-04T01:39:38.681280","MEAN_MOTION":1.00270895,"ECCENTRICITY":0.0003077,"INCLINATION":0.0553,"RA_OF_ASC_NODE":349.6991,"ARG_OF_PERICENTER":355.4017,"MEAN_ANOMALY":227.1139,"EPHEMERIS_TYPE":0,"CLASSIFICATION_TYPE":"U","NORAD_CAT_ID":39233,"ELEMENT_SET_NO":999,"REV_AT_EPOCH":4557,"BSTAR":0,"MEAN_MOTION_DOT":1.3e-6,"MEAN_MOTION_DDOT":0},{"OBJECT_NAME":"GSAT-7","OBJECT_ID":"2013-044B","EPOCH":"2026-03-04T02:24:31.745952","MEAN_MOTION":1.00271441,"ECCENTRICITY":0.0006608,"INCLINATION":0.0207,"RA_OF_ASC_NODE":109.2472,"ARG_OF_PERICENTER":183.9207,"MEAN_ANOMALY":338.8037,"EPHEMERIS_TYPE":0,"CLASSIFICATION_TYPE":"U","NORAD_CAT_ID":39234,"ELEMENT_SET_NO":999,"REV_AT_EPOCH":4420,"BSTAR":0,"MEAN_MOTION_DOT":-8.9e-7,"MEAN_MOTION_DDOT":0},{"OBJECT_NAME":"AMOS-4","OBJECT_ID":"2013-045A","EPOCH":"2026-03-04T02:21:54.497952","MEAN_MOTION":1.00272159,"ECCENTRICITY":0.000331,"INCLINATION":0.0119,"RA_OF_ASC_NODE":158.9724,"ARG_OF_PERICENTER":189.9836,"MEAN_ANOMALY":273.3653,"EPHEMERIS_TYPE":0,"CLASSIFICATION_TYPE":"U","NORAD_CAT_ID":39237,"ELEMENT_SET_NO":999,"REV_AT_EPOCH":4590,"BSTAR":0,"MEAN_MOTION_DOT":-5.0e-8,"MEAN_MOTION_DDOT":0},{"OBJECT_NAME":"SL-23 R/B","OBJECT_ID":"2013-045B","EPOCH":"2026-03-03T11:10:57.980640","MEAN_MOTION":2.10659709,"ECCENTRICITY":0.6367888,"INCLINATION":26.2971,"RA_OF_ASC_NODE":100.0767,"ARG_OF_PERICENTER":74.228,"MEAN_ANOMALY":343.9452,"EPHEMERIS_TYPE":0,"CLASSIFICATION_TYPE":"U","NORAD_CAT_ID":39238,"ELEMENT_SET_NO":999,"REV_AT_EPOCH":9623,"BSTAR":0,"MEAN_MOTION_DOT":-2.25e-6,"MEAN_MOTION_DDOT":0},{"OBJECT_NAME":"AEHF-3 (USA 246)","OBJECT_ID":"2013-050A","EPOCH":"2026-03-04T03:10:34.830912","MEAN_MOTION":1.00272712,"ECCENTRICITY":0.0091732,"INCLINATION":5.0348,"RA_OF_ASC_NODE":68.1529,"ARG_OF_PERICENTER":187.9099,"MEAN_ANOMALY":189.2028,"EPHEMERIS_TYPE":0,"CLASSIFICATION_TYPE":"U","NORAD_CAT_ID":39256,"ELEMENT_SET_NO":999,"REV_AT_EPOCH":4460,"BSTAR":0,"MEAN_MOTION_DOT":1.9e-7,"MEAN_MOTION_DDOT":0},{"OBJECT_NAME":"ASTRA 2E","OBJECT_ID":"2013-056A","EPOCH":"2026-03-04T01:39:38.681280","MEAN_MOTION":1.00271905,"ECCENTRICITY":0.0002192,"INCLINATION":0.0692,"RA_OF_ASC_NODE":29.9587,"ARG_OF_PERICENTER":306.6148,"MEAN_ANOMALY":238.6253,"EPHEMERIS_TYPE":0,"CLASSIFICATION_TYPE":"U","NORAD_CAT_ID":39285,"ELEMENT_SET_NO":999,"REV_AT_EPOCH":4536,"BSTAR":0,"MEAN_MOTION_DOT":1.37e-6,"MEAN_MOTION_DDOT":0},{"OBJECT_NAME":"TITAN 3C TRANSTAGE DEB","OBJECT_ID":"1968-081AG","EPOCH":"2026-03-04T01:46:42.869856","MEAN_MOTION":1.00581761,"ECCENTRICITY":0.0173674,"INCLINATION":1.4514,"RA_OF_ASC_NODE":25.1689,"ARG_OF_PERICENTER":310.6914,"MEAN_ANOMALY":153.5407,"EPHEMERIS_TYPE":0,"CLASSIFICATION_TYPE":"U","NORAD_CAT_ID":39296,"ELEMENT_SET_NO":999,"REV_AT_EPOCH":5063,"BSTAR":0,"MEAN_MOTION_DOT":-3.64e-6,"MEAN_MOTION_DDOT":0},{"OBJECT_NAME":"TITAN 3C TRANSTAGE DEB","OBJECT_ID":"1968-081AH","EPOCH":"2026-03-03T10:05:45.914784","MEAN_MOTION":1.0042699,"ECCENTRICITY":0.0230356,"INCLINATION":1.4914,"RA_OF_ASC_NODE":18.1825,"ARG_OF_PERICENTER":309.1719,"MEAN_ANOMALY":49.5337,"EPHEMERIS_TYPE":0,"CLASSIFICATION_TYPE":"U","NORAD_CAT_ID":39297,"ELEMENT_SET_NO":999,"REV_AT_EPOCH":1541,"BSTAR":0,"MEAN_MOTION_DOT":-8.8e-7,"MEAN_MOTION_DDOT":0},{"OBJECT_NAME":"TITAN 3C TRANSTAGE DEB","OBJECT_ID":"1968-081AJ","EPOCH":"2026-03-03T13:32:48.818688","MEAN_MOTION":1.0012158,"ECCENTRICITY":0.0153175,"INCLINATION":1.5309,"RA_OF_ASC_NODE":19.2587,"ARG_OF_PERICENTER":324.2433,"MEAN_ANOMALY":271.7456,"EPHEMERIS_TYPE":0,"CLASSIFICATION_TYPE":"U","NORAD_CAT_ID":39298,"ELEMENT_SET_NO":999,"REV_AT_EPOCH":6522,"BSTAR":0,"MEAN_MOTION_DOT":-1.27e-6,"MEAN_MOTION_DDOT":0},{"OBJECT_NAME":"TITAN 3C TRANSTAGE DEB","OBJECT_ID":"1968-081AK","EPOCH":"2026-03-03T17:47:24.421632","MEAN_MOTION":1.00432653,"ECCENTRICITY":0.01621588,"INCLINATION":1.4242,"RA_OF_ASC_NODE":19.3646,"ARG_OF_PERICENTER":23.5295,"MEAN_ANOMALY":84.8263,"EPHEMERIS_TYPE":0,"CLASSIFICATION_TYPE":"U","NORAD_CAT_ID":39299,"ELEMENT_SET_NO":999,"REV_AT_EPOCH":6611,"BSTAR":0,"MEAN_MOTION_DOT":-4.5e-7,"MEAN_MOTION_DDOT":0},{"OBJECT_NAME":"CZ-3B DEB","OBJECT_ID":"2010-042E","EPOCH":"2026-03-03T11:55:57.508032","MEAN_MOTION":1.91226778,"ECCENTRICITY":0.7442808,"INCLINATION":24.3972,"RA_OF_ASC_NODE":47.7588,"ARG_OF_PERICENTER":84.8198,"MEAN_ANOMALY":15.9566,"EPHEMERIS_TYPE":0,"CLASSIFICATION_TYPE":"U","NORAD_CAT_ID":39333,"ELEMENT_SET_NO":999,"REV_AT_EPOCH":8809,"BSTAR":0.0024577,"MEAN_MOTION_DOT":6.4e-7,"MEAN_MOTION_DDOT":0},{"OBJECT_NAME":"CZ-3B DEB","OBJECT_ID":"2010-042F","EPOCH":"2026-03-02T03:04:39.218016","MEAN_MOTION":1.8638602,"ECCENTRICITY":0.73561133,"INCLINATION":26.1246,"RA_OF_ASC_NODE":266.0053,"ARG_OF_PERICENTER":1.8521,"MEAN_ANOMALY":172.3838,"EPHEMERIS_TYPE":0,"CLASSIFICATION_TYPE":"U","NORAD_CAT_ID":39334,"ELEMENT_SET_NO":999,"REV_AT_EPOCH":9582,"BSTAR":0,"MEAN_MOTION_DOT":2.3e-7,"MEAN_MOTION_DDOT":0},{"OBJECT_NAME":"CZ-3B DEB","OBJECT_ID":"2010-042G","EPOCH":"2026-02-27T06:05:38.759712","MEAN_MOTION":1.97574851,"ECCENTRICITY":0.73602895,"INCLINATION":27.783,"RA_OF_ASC_NODE":65.7488,"ARG_OF_PERICENTER":275.3611,"MEAN_ANOMALY":72.2182,"EPHEMERIS_TYPE":0,"CLASSIFICATION_TYPE":"U","NORAD_CAT_ID":39335,"ELEMENT_SET_NO":999,"REV_AT_EPOCH":8188,"BSTAR":0.010318089,"MEAN_MOTION_DOT":7.07e-6,"MEAN_MOTION_DDOT":0},{"OBJECT_NAME":"CZ-3B DEB","OBJECT_ID":"2010-042J","EPOCH":"2026-02-22T16:12:54.176256","MEAN_MOTION":1.84179093,"ECCENTRICITY":0.7504896,"INCLINATION":24.2566,"RA_OF_ASC_NODE":146.8813,"ARG_OF_PERICENTER":240.566,"MEAN_ANOMALY":26.5645,"EPHEMERIS_TYPE":0,"CLASSIFICATION_TYPE":"U","NORAD_CAT_ID":39337,"ELEMENT_SET_NO":999,"REV_AT_EPOCH":8059,"BSTAR":0.0076506,"MEAN_MOTION_DOT":2.95e-6,"MEAN_MOTION_DDOT":0},{"OBJECT_NAME":"CZ-3C DEB","OBJECT_ID":"2010-057C","EPOCH":"2026-03-03T05:18:18.989568","MEAN_MOTION":2.25952159,"ECCENTRICITY":0.71908304,"INCLINATION":20.206,"RA_OF_ASC_NODE":45.305,"ARG_OF_PERICENTER":271.3024,"MEAN_ANOMALY":15.0754,"EPHEMERIS_TYPE":0,"CLASSIFICATION_TYPE":"U","NORAD_CAT_ID":39338,"ELEMENT_SET_NO":999,"REV_AT_EPOCH":10200,"BSTAR":0.0029393941,"MEAN_MOTION_DOT":2.57e-6,"MEAN_MOTION_DDOT":0}]
